[{"OBJECT_NAME":"NETSAT-3","OBJECT_ID":"2020-068V","EPOCH":"2026-03-15T05:41:37.892832","MEAN_MOTION":15.39301997,"ECCENTRICITY":0.00041155,"INCLINATION":97.8676,"RA_OF_ASC_NODE":73.5043,"ARG_OF_PERICENTER":335.9118,"MEAN_ANOMALY":24.1934,"EPHEMERIS_TYPE":0,"CLASSIFICATION_TYPE":"U","NORAD_CAT_ID":46505,"ELEMENT_SET_NO":999,"REV_AT_EPOCH":30121,"BSTAR":0.00055778485,"MEAN_MOTION_DOT":0.00021702,"MEAN_MOTION_DDOT":0},{"OBJECT_NAME":"NETSAT-1","OBJECT_ID":"2020-068W","EPOCH":"2026-03-15T05:40:23.568096","MEAN_MOTION":15.32231967,"ECCENTRICITY":0.00049237,"INCLINATION":97.8745,"RA_OF_ASC_NODE":68.8812,"ARG_OF_PERICENTER":2.1233,"MEAN_ANOMALY":358.0027,"EPHEMERIS_TYPE":0,"CLASSIFICATION_TYPE":"U","NORAD_CAT_ID":46506,"ELEMENT_SET_NO":999,"REV_AT_EPOCH":30090,"BSTAR":0.00056262266,"MEAN_MOTION_DOT":0.00017451,"MEAN_MOTION_DDOT":0},{"OBJECT_NAME":"NETSAT-2","OBJECT_ID":"2020-068X","EPOCH":"2026-03-15T06:08:27.873024","MEAN_MOTION":15.4188745,"ECCENTRICITY":0.00034504,"INCLINATION":97.8654,"RA_OF_ASC_NODE":74.7911,"ARG_OF_PERICENTER":5.0212,"MEAN_ANOMALY":355.1068,"EPHEMERIS_TYPE":0,"CLASSIFICATION_TYPE":"U","NORAD_CAT_ID":46507,"ELEMENT_SET_NO":999,"REV_AT_EPOCH":30124,"BSTAR":0.00060137425,"MEAN_MOTION_DOT":0.00025501,"MEAN_MOTION_DDOT":0},{"OBJECT_NAME":"GREENCUBE (IO-117)","OBJECT_ID":"2022-080E","EPOCH":"2026-03-14T17:06:42.520032","MEAN_MOTION":6.42583118,"ECCENTRICITY":0.00089903,"INCLINATION":70.1599,"RA_OF_ASC_NODE":331.1096,"ARG_OF_PERICENTER":310.7848,"MEAN_ANOMALY":49.2032,"EPHEMERIS_TYPE":0,"CLASSIFICATION_TYPE":"U","NORAD_CAT_ID":53109,"ELEMENT_SET_NO":999,"REV_AT_EPOCH":8599,"BSTAR":0,"MEAN_MOTION_DOT":-3.0e-8,"MEAN_MOTION_DDOT":0},{"OBJECT_NAME":"SITRO-AIS 5 (KATYS)","OBJECT_ID":"2023-091L","EPOCH":"2026-03-15T07:33:41.921856","MEAN_MOTION":15.27242357,"ECCENTRICITY":0.00131955,"INCLINATION":97.5175,"RA_OF_ASC_NODE":137.4302,"ARG_OF_PERICENTER":77.5948,"MEAN_ANOMALY":282.6766,"EPHEMERIS_TYPE":0,"CLASSIFICATION_TYPE":"U","NORAD_CAT_ID":57176,"ELEMENT_SET_NO":999,"REV_AT_EPOCH":15000,"BSTAR":0.00055049553,"MEAN_MOTION_DOT":0.0001467,"MEAN_MOTION_DDOT":0},{"OBJECT_NAME":"SITRO-AIS 6 (CHIRKIN)","OBJECT_ID":"2023-091AC","EPOCH":"2026-03-15T07:02:18.068352","MEAN_MOTION":15.24502304,"ECCENTRICITY":0.00140898,"INCLINATION":97.518,"RA_OF_ASC_NODE":136.9812,"ARG_OF_PERICENTER":78.8942,"MEAN_ANOMALY":281.3879,"EPHEMERIS_TYPE":0,"CLASSIFICATION_TYPE":"U","NORAD_CAT_ID":57192,"ELEMENT_SET_NO":999,"REV_AT_EPOCH":14997,"BSTAR":0.00032418463,"MEAN_MOTION_DOT":7.92e-5,"MEAN_MOTION_DDOT":0},{"OBJECT_NAME":"SITRO-AIS 8 (ANOKHIN)","OBJECT_ID":"2023-091AD","EPOCH":"2026-03-15T05:21:36.686592","MEAN_MOTION":15.29547066,"ECCENTRICITY":0.00123178,"INCLINATION":97.5167,"RA_OF_ASC_NODE":138.5736,"ARG_OF_PERICENTER":75.6668,"MEAN_ANOMALY":284.5939,"EPHEMERIS_TYPE":0,"CLASSIFICATION_TYPE":"U","NORAD_CAT_ID":57193,"ELEMENT_SET_NO":999,"REV_AT_EPOCH":15007,"BSTAR":0.00059206529,"MEAN_MOTION_DOT":0.00016936,"MEAN_MOTION_DDOT":0},{"OBJECT_NAME":"SITRO-AIS 7 (FARTUSHNIY)","OBJECT_ID":"2023-091AE","EPOCH":"2026-03-15T06:41:22.502688","MEAN_MOTION":15.24245298,"ECCENTRICITY":0.00139824,"INCLINATION":97.5179,"RA_OF_ASC_NODE":136.8355,"ARG_OF_PERICENTER":79.7842,"MEAN_ANOMALY":280.4971,"EPHEMERIS_TYPE":0,"CLASSIFICATION_TYPE":"U","NORAD_CAT_ID":57194,"ELEMENT_SET_NO":999,"REV_AT_EPOCH":14996,"BSTAR":0.00030863549,"MEAN_MOTION_DOT":7.478e-5,"MEAN_MOTION_DDOT":0},{"OBJECT_NAME":"SITRO-AIS 10 (BURDAEV)","OBJECT_ID":"2023-091AK","EPOCH":"2026-03-15T07:03:32.332608","MEAN_MOTION":15.35018116,"ECCENTRICITY":0.00077895,"INCLINATION":97.518,"RA_OF_ASC_NODE":142.8104,"ARG_OF_PERICENTER":57.9647,"MEAN_ANOMALY":302.2352,"EPHEMERIS_TYPE":0,"CLASSIFICATION_TYPE":"U","NORAD_CAT_ID":57199,"ELEMENT_SET_NO":999,"REV_AT_EPOCH":15034,"BSTAR":0.00065899592,"MEAN_MOTION_DOT":0.00022366,"MEAN_MOTION_DDOT":0},{"OBJECT_NAME":"SITRO-AIS 9 (SHCHUKIN)","OBJECT_ID":"2023-091AM","EPOCH":"2026-03-15T07:02:57.789024","MEAN_MOTION":15.34635519,"ECCENTRICITY":0.00080253,"INCLINATION":97.5179,"RA_OF_ASC_NODE":142.606,"ARG_OF_PERICENTER":57.5681,"MEAN_ANOMALY":302.6337,"EPHEMERIS_TYPE":0,"CLASSIFICATION_TYPE":"U","NORAD_CAT_ID":57201,"ELEMENT_SET_NO":999,"REV_AT_EPOCH":15033,"BSTAR":0.00064037058,"MEAN_MOTION_DOT":0.00021467,"MEAN_MOTION_DDOT":0},{"OBJECT_NAME":"SITRO-AIS 12 (SMIRENNIY)","OBJECT_ID":"2023-091AQ","EPOCH":"2026-03-15T07:13:38.364672","MEAN_MOTION":15.3488396,"ECCENTRICITY":0.00075856,"INCLINATION":97.519,"RA_OF_ASC_NODE":143.0252,"ARG_OF_PERICENTER":53.0027,"MEAN_ANOMALY":307.1909,"EPHEMERIS_TYPE":0,"CLASSIFICATION_TYPE":"U","NORAD_CAT_ID":57204,"ELEMENT_SET_NO":999,"REV_AT_EPOCH":15035,"BSTAR":0.00064493489,"MEAN_MOTION_DOT":0.00021791,"MEAN_MOTION_DDOT":0},{"OBJECT_NAME":"SITRO-AIS 11 (SHEFFER)","OBJECT_ID":"2023-091AU","EPOCH":"2026-03-15T06:33:12.432384","MEAN_MOTION":15.35232773,"ECCENTRICITY":0.00074522,"INCLINATION":97.5188,"RA_OF_ASC_NODE":143.1895,"ARG_OF_PERICENTER":52.7225,"MEAN_ANOMALY":307.4697,"EPHEMERIS_TYPE":0,"CLASSIFICATION_TYPE":"U","NORAD_CAT_ID":57208,"ELEMENT_SET_NO":999,"REV_AT_EPOCH":15036,"BSTAR":0.0007204494,"MEAN_MOTION_DOT":0.00024632,"MEAN_MOTION_DDOT":0},{"OBJECT_NAME":"SITRO-AIS 25","OBJECT_ID":"2024-039R","EPOCH":"2026-03-15T06:49:05.241216","MEAN_MOTION":14.9268429,"ECCENTRICITY":0.01447651,"INCLINATION":95.3938,"RA_OF_ASC_NODE":170.5903,"ARG_OF_PERICENTER":296.5822,"MEAN_ANOMALY":62.0628,"EPHEMERIS_TYPE":0,"CLASSIFICATION_TYPE":"U","NORAD_CAT_ID":59066,"ELEMENT_SET_NO":999,"REV_AT_EPOCH":11071,"BSTAR":0.00040325907,"MEAN_MOTION_DOT":5.066e-5,"MEAN_MOTION_DDOT":0},{"OBJECT_NAME":"SITRO-AIS 26","OBJECT_ID":"2024-039S","EPOCH":"2026-03-15T06:33:23.124384","MEAN_MOTION":14.92494394,"ECCENTRICITY":0.01451106,"INCLINATION":95.3936,"RA_OF_ASC_NODE":170.4987,"ARG_OF_PERICENTER":297.0884,"MEAN_ANOMALY":61.5598,"EPHEMERIS_TYPE":0,"CLASSIFICATION_TYPE":"U","NORAD_CAT_ID":59067,"ELEMENT_SET_NO":999,"REV_AT_EPOCH":11070,"BSTAR":0.00039223189,"MEAN_MOTION_DOT":4.905e-5,"MEAN_MOTION_DDOT":0},{"OBJECT_NAME":"SITRO-AIS 27","OBJECT_ID":"2024-039T","EPOCH":"2026-03-15T06:27:26.423712","MEAN_MOTION":14.92890129,"ECCENTRICITY":0.01442403,"INCLINATION":95.3936,"RA_OF_ASC_NODE":170.7255,"ARG_OF_PERICENTER":295.8948,"MEAN_ANOMALY":62.7467,"EPHEMERIS_TYPE":0,"CLASSIFICATION_TYPE":"U","NORAD_CAT_ID":59068,"ELEMENT_SET_NO":999,"REV_AT_EPOCH":11072,"BSTAR":0.00038080625,"MEAN_MOTION_DOT":4.802e-5,"MEAN_MOTION_DDOT":0},{"OBJECT_NAME":"SITRO-AIS 28","OBJECT_ID":"2024-039U","EPOCH":"2026-03-15T07:34:35.989248","MEAN_MOTION":14.92924802,"ECCENTRICITY":0.01442327,"INCLINATION":95.3936,"RA_OF_ASC_NODE":170.8,"ARG_OF_PERICENTER":295.5815,"MEAN_ANOMALY":63.0561,"EPHEMERIS_TYPE":0,"CLASSIFICATION_TYPE":"U","NORAD_CAT_ID":59071,"ELEMENT_SET_NO":999,"REV_AT_EPOCH":11073,"BSTAR":0.00034690563,"MEAN_MOTION_DOT":4.375e-5,"MEAN_MOTION_DDOT":0}]
