NETSAT-3                
1 46505U 20068V   26074.23724413  .00021702  00000+0  55778-3 0  9997
2 46505  97.8676  73.5043 0004115 335.9118  24.1934 15.39301997301215
NETSAT-1                
1 46506U 20068W   26074.23638389  .00017451  00000+0  56262-3 0  9999
2 46506  97.8745  68.8812 0004923   2.1233 358.0027 15.32231967300901
NETSAT-2                
1 46507U 20068X   26074.25587816  .00025501  00000+0  60137-3 0  9991
2 46507  97.8654  74.7911 0003450   5.0212 355.1068 15.41887450301245
GREENCUBE (IO-117)      
1 53109U 22080E   26073.71299213 -.00000003  00000+0  00000+0 0  9994
2 53109  70.1599 331.1096 0008990 310.7848  49.2032  6.42583118 85990
SITRO-AIS 5 (KATYS)     
1 57176U 23091L   26074.31506854  .00014670  00000+0  55050-3 0  9997
2 57176  97.5175 137.4302 0013195  77.5948 282.6766 15.27242357150002
SITRO-AIS 6 (CHIRKIN)   
1 57192U 23091AC  26074.29326468  .00007920  00000+0  32418-3 0  9996
2 57192  97.5180 136.9812 0014089  78.8942 281.3879 15.24502304149970
SITRO-AIS 8 (ANOKHIN)   
1 57193U 23091AD  26074.22334128  .00016936  00000+0  59207-3 0  9994
2 57193  97.5167 138.5736 0012317  75.6668 284.5939 15.29547066150075
SITRO-AIS 7 (FARTUSHNIY)
1 57194U 23091AE  26074.27873267  .00007478  00000+0  30864-3 0  9991
2 57194  97.5179 136.8355 0013982  79.7842 280.4971 15.24245298149969
SITRO-AIS 10 (BURDAEV)  
1 57199U 23091AK  26074.29412422  .00022366  00000+0  65900-3 0  9992
2 57199  97.5180 142.8104 0007789  57.9647 302.2352 15.35018116150343
SITRO-AIS 9 (SHCHUKIN)  
1 57201U 23091AM  26074.29372441  .00021467  00000+0  64037-3 0  9993
2 57201  97.5179 142.6060 0008025  57.5681 302.6337 15.34635519150339
SITRO-AIS 12 (SMIRENNIY)
1 57204U 23091AQ  26074.30113848  .00021791  00000+0  64493-3 0  9998
2 57204  97.5190 143.0252 0007585  53.0027 307.1909 15.34883960150350
SITRO-AIS 11 (SHEFFER)  
1 57208U 23091AU  26074.27306056  .00024632  00000+0  72045-3 0  9992
2 57208  97.5188 143.1895 0007452  52.7225 307.4697 15.35232773150363
SITRO-AIS 25            
1 59066U 24039R   26074.28408844  .00005066  00000+0  40326-3 0  9995
2 59066  95.3938 170.5903 0144765 296.5822  62.0628 14.92684290110710
SITRO-AIS 26            
1 59067U 24039S   26074.27318431  .00004905  00000+0  39223-3 0  9992
2 59067  95.3936 170.4987 0145110 297.0884  61.5598 14.92494394110702
SITRO-AIS 27            
1 59068U 24039T   26074.26905583  .00004802  00000+0  38081-3 0  9999
2 59068  95.3936 170.7255 0144240 295.8948  62.7467 14.92890129110720
SITRO-AIS 28            
1 59071U 24039U   26074.31569432  .00004375  00000+0  34691-3 0  9996
2 59071  95.3936 170.8000 0144232 295.5815  63.0561 14.92924802110730
